STARLINK-5127           
1 54010U 22125AY  26193.50002315  .00038441  00000+0  20508-2 0  9995
2 54010  53.1602   3.0666 0002047 120.1952 198.9088 15.14812999  5831
STARLINK-5124           
1 54011U 22125AZ  26193.50002315  .00046655  00000+0  18475-2 0  9992
2 54011  53.1607   2.9338 0000606  46.4672 338.5060 15.24995541  5781
STARLINK-5126           
1 54012U 22125BA  26193.11255263  .00004025  00000+0  15190-3 0  9999
2 54012  53.1616   2.0260 0001556  68.9848 291.1319 15.29317233208435
STARLINK-5098           
1 54013U 22125BB  26193.50002315  .00044178  00000+0  17868-2 0  9997
2 54013  53.1611   2.8012 0001641  60.9159  31.2147 15.24311276  5844
STARLINK-5055           
1 54015U 22125BD  26193.50002315  .00084362  00000+0  30491-2 0  9995
2 54015  53.2162   2.4807 0000381  73.5731 306.9164 15.27748624  5836
CENTISPACE-1 S5         
1 54020U 22126A   26193.43115081  .00000402  00000+0  11439-3 0  9994
2 54020  54.9988 111.9383 0014483 119.2160 241.0284 14.63053549200735
CENTISPACE-1 S6         
1 54021U 22126B   26193.43697383  .00000284  00000+0  92842-4 0  9991
2 54021  54.9990 113.8987 0016287 120.2841 239.9767 14.62314100200691
OTB-3-GAZELLE           
1 54023U 22127A   26193.51338752  .00000070  00000+0  34059-4 0  9994
2 54023  98.3959 184.8336 0014374 110.3250 249.9486 14.42683393198017
GALAXY 33 (G-33)        
1 54026U 22128A   26193.48586507  .00000080  00000+0  00000+0 0  9992
2 54026   0.0053  37.7459 0001755  81.8742 212.6653  1.00271201 13991
GALAXY 34 (G-34)        
1 54027U 22128B   26193.46612661  .00000000  00000+0  00000+0 0  9994
2 54027   0.0236  14.4132 0001411 108.1241 206.6250  1.00273746 14163
ASO-S                   
1 54029U 22129A   26193.54295308  .00000117  00000+0  39977-4 0  9990
2 54029  98.2754 198.2610 0014764  20.1623 340.0153 14.52074075199101
COSMOS 2559 [GLONASS-K] 
1 54031U 22130A   26192.79940770 -.00000064  00000+0  00000+0 0  9993
2 54031  64.2551 313.7009 0013043 180.7023 179.3009  2.13101617 29218
ANGOSAT 2               
1 54033U 22131A   26193.49611345  .00000136  00000+0  00000+0 0  9996
2 54033   0.0192 113.9074 0000201 135.3318 242.7454  1.00270753 13738
HJ-2E                   
1 54035U 22132A   26193.52276935  .00004453  00000+0  19344-3 0  9996
2 54035  97.3799 197.4489 0018058 280.8809  79.0395 15.22672334208279
YAOGAN-36 02A           
1 54042U 22133A   26193.54996355  .00005883  00000+0  24327-3 0  9997
2 54042  35.0078 320.2839 0024712  73.5947 286.7482 15.23044326208623
YAOGAN-36 02B           
1 54043U 22133B   26193.50153963  .00008049  00000+0  24642-3 0  9991
2 54043  34.9969 308.6783 0004097 318.9537  41.0872 15.33062308208732
YAOGAN-36 02C           
1 54045U 22133D   26193.56099611  .00027445  00000+0  45866-3 0  9990
2 54045  34.9888 267.3782 0008394 104.0397 256.1260 15.50884917209161
EUTELSAT HOTBIRD 13F    
1 54048U 22134A   26193.35169272  .00000089  00000+0  00000+0 0  9994
2 54048   0.0551 286.2286 0001886  66.3447  77.2941  1.00271439 13620
STARLINK-5195           
1 54051U 22136A   26193.26547235  .00000099  00000+0  24707-4 0  9995
2 54051  53.1908 145.3213 0001246  82.0093 278.1040 15.08022643205647
STARLINK-5189           
1 54052U 22136B   26193.12777998  .00000057  00000+0  21652-4 0  9992
2 54052  53.1605 105.0657 0001360 102.5788 257.5356 15.08828338206190
STARLINK-5176           
1 54053U 22136C   26193.50002315 -.00027978  00000+0 -89271-3 0  9992
2 54053  53.1585 140.7515 0001121  91.4733  13.9118 15.31717197  5786
STARLINK-5163           
1 54054U 22136D   26193.50002315 -.00027194  00000+0 -86719-3 0  9997
2 54054  53.1604 142.1593 0001244  89.9715  40.0731 15.31719854  5840
STARLINK-5158           
1 54055U 22136E   26193.50002315  .00007572  00000+0  41090-3 0  9997
2 54055  53.1603 143.6403 0003114  89.0407 327.9041 15.15491289  5698
STARLINK-5226           
1 54056U 22136F   26193.24551521 -.00000257  00000+0  19540-5 0  9998
2 54056  53.1607 144.3075 0001679  78.0770 282.0410 15.08831792205659
STARLINK-5167           
1 54058U 22136H   26193.50002315  .00006684  00000+0  37917-3 0  9996
2 54058  53.1607 143.5084 0002168  60.0339  62.5269 15.14087613  5583
STARLINK-5173           
1 54059U 22136J   26193.50002315  .00003987  00000+0  21247-3 0  9999
2 54059  53.1608 143.4474 0001548  31.0167 124.6524 15.17403813  5698
STARLINK-5169           
1 54060U 22136K   26193.18203967  .00000132  00000+0  26394-4 0  9999
2 54060  53.1595 114.6650 0001454  89.7764 270.3394 15.08834461206065
STARLINK-5209           
1 54061U 22136L   26193.50002315  .00022627  00000+0  12146-2 0  9991
2 54061  53.1608 108.0635 0001775  51.6708 307.7044 15.14867531  5787
STARLINK-5170           
1 54062U 22136M   26193.50002315  .00007827  00000+0  43707-3 0  9995
2 54062  53.1603 143.4755 0001898  87.0502  52.5066 15.14419468  5781
STARLINK-5172           
1 54064U 22136P   26192.96563657  .00001220  00000+0  54598-4 0  9999
2 54064  53.1602  98.3807 0001214  98.9256 261.1882 15.29363474206279
STARLINK-5187           
1 54065U 22136Q   26193.50002315  .00000331  00000+0  35836-4 0  9996
2 54065  53.1611 143.4030 0002159  38.6588 137.7786 15.12447105  5788
STARLINK-5151           
1 54066U 22136R   26193.50002315 -.00036289  00000+0 -23242-2 0  9996
2 54066  53.1869 143.9565 0001492  80.4122 273.0486 15.08034271  5423
STARLINK-5174           
1 54067U 22136S   26193.50002315 -.00003497  00000+0 -16952-3 0  9993
2 54067  53.1597 143.2704 0002209  71.5697 173.3182 15.14886655  5686
STARLINK-5222           
1 54068U 22136T   26192.27403547  .00000487  00000+0  48664-4 0  9999
2 54068  53.1594 148.9019 0001208  80.3698 279.7430 15.08834376205508
STARLINK-5181           
1 54070U 22136V   26193.45392811  .00117902  00000+0  70970-2 0  9998
2 54070  53.1606 143.4672 0001625  65.0315 295.0846 15.09887436205686
STARLINK-5168           
1 54071U 22136W   26193.50002315 -.00002357  00000+0 -11726-3 0  9996
2 54071  53.1594 143.2017 0000830  92.2580 187.9225 15.12409971  5830
STARLINK-5146           
1 54073U 22136Y   26192.98654304  .00000232  00000+0  32665-4 0  9994
2 54073  53.1603 140.5458 0001264  86.1305 273.9831 15.08834707205689
STARLINK-5192           
1 54074U 22136Z   26193.24919880 -.00000150  00000+0  86737-5 0  9998
2 54074  53.1616 144.3195 0001213  92.7462 267.3668 15.08832414205650
STARLINK-5212           
1 54075U 22136AA  26193.26975694  .00000529  00000+0  28828-4 0  9991
2 54075  53.1613 135.9651 0001223  87.7781 272.3360 15.31696581205777
STARLINK-5201           
1 54076U 22136AB  26193.30542875  .00001005  00000+0  81242-4 0  9997
2 54076  53.1595 144.6545 0001294  85.7648 274.3492 15.08840397205659
STARLINK-5171           
1 54077U 22136AC  26193.19553162  .00000018  00000+0  19230-4 0  9997
2 54077  53.1604 120.5824 0000925 106.3858 253.7235 15.08835795205985
STARLINK-5175           
1 54079U 22136AE  26193.23914273  .00000119  00000+0  25541-4 0  9992
2 54079  53.1570 134.9762 0000648 129.0453 231.0596 15.08836712205781
STARLINK-5210           
1 54082U 22136AH  26193.23546354 -.00000549  00000+0 -16370-4 0  9996
2 54082  53.1605 134.9497 0001530  87.0441 273.0726 15.08832455205781
STARLINK-5178           
1 54083U 22136AJ  26193.22441564 -.00000295  00000+0 -45090-6 0  9994
2 54083  53.1594 134.8836 0001514  81.2568 278.8595 15.08830528205789
STARLINK-5183           
1 54084U 22136AK  26193.23177997  .00000189  00000+0  29965-4 0  9993
2 54084  53.1596 134.9278 0001377  84.5294 275.5854 15.08831672205785
STARLINK-5166           
1 54085U 22136AL  26193.22169071 -.00000039  00000+0  15652-4 0  9990
2 54085  53.1600 134.8659 0001669  85.4089 274.7093 15.08840156205783
STARLINK-5211           
1 54086U 22136AM  26193.15771910 -.00000028  00000+0  16310-4 0  9994
2 54086  53.1595 120.2179 0001116  91.0809 269.0310 15.08833390205986
STARLINK-5184           
1 54087U 22136AN  26192.98515597 -.00000211  00000+0  48481-5 0  9991
2 54087  53.1607 135.5314 0001298  94.3669 265.7471 15.08834369205755
STARLINK-5153           
1 54088U 22136AP  26193.22809541  .00000459  00000+0  46906-4 0  9997
2 54088  53.1595 134.9046 0001382  97.5283 262.5866 15.08835841205780
STARLINK-5143           
1 54089U 22136AQ  26193.20599300  .00000052  00000+0  21376-4 0  9998
2 54089  53.1609 134.7721 0001414  84.7146 275.4006 15.08831517205782
STARLINK-5177           
1 54090U 22136AR  26193.20967403  .00000167  00000+0  28572-4 0  9995
2 54090  53.1593 134.7905 0001450  84.7650 275.3507 15.08828818205785
STARLINK-5221           
1 54091U 22136AS  26193.24643199  .00000549  00000+0  52583-4 0  9996
2 54091  53.1596 134.3142 0001219  89.6606 270.4525 15.08839082205798
STARLINK-5190           
1 54092U 22136AT  26193.50002315  .00167952  21542-4  51776-3 0  9998
2 54092  53.1685 272.2138 0007659 353.8919 125.6576 15.91432149  5905
STARLINK-5213           
1 54093U 22136AU  26193.26116527  .00007742  00000+0  50457-3 0  9999
2 54093  53.1525 134.4064 0001879  60.6044 299.5135 15.08796410205799
STARLINK-5193           
1 54095U 22136AW  26193.25378854  .00001578  00000+0  11713-3 0  9996
2 54095  53.1616 134.3563 0001245  42.1789 317.9298 15.08861014205791
STARLINK-5188           
1 54096U 22136AX  26193.19862200  .00000175  00000+0  29090-4 0  9993
2 54096  53.1595 134.7215 0001034  87.6048 272.5062 15.08835420205780
STARLINK-5197           
1 54097U 22136AY  26193.14021235  .00000698  00000+0  61931-4 0  9994
2 54097  53.1602 110.1240 0001541  87.5770 272.5398 15.08839662206123
STARLINK-5217           
1 54098U 22136AZ  26193.25115250 -.00000538  00000+0 -15708-4 0  9994
2 54098  53.1598 135.0318 0001202 129.6265 230.4833 15.08835994205783
STARLINK-5198           
1 54099U 22136BA  26193.44148538  .00006633  00000+0  43491-3 0  9990
2 54099  53.1624 133.3927 0001351  94.1165 265.9981 15.08797744205823
